{"fetched_at":"2026-07-09T18:16:42.472Z","source":"https://celestrak.org/NORAD/elements/gp.php?GROUP=oneweb&FORMAT=JSON","constellation":"oneweb","records":[{"OBJECT_NAME":"ONEWEB-0176","OBJECT_ID":"2021-031A","EPOCH":"2026-07-08T19:06:52.578432","CLASSIFICATION_TYPE":"U","MEAN_MOTION":13.14502123,"ECCENTRICITY":0.00021023,"INCLINATION":87.8972,"RA_OF_ASC_NODE":285.3934,"ARG_OF_PERICENTER":104.7672,"MEAN_ANOMALY":255.369,"EPHEMERIS_TYPE":0,"NORAD_CAT_ID":48210,"ELEMENT_SET_NO":999,"REV_AT_EPOCH":25115,"BSTAR":0.00060028997,"MEAN_MOTION_DOT":0.00000235,"MEAN_MOTION_DDOT":0},{"OBJECT_NAME":"ONEWEB-0184","OBJECT_ID":"2021-031B","EPOCH":"2026-07-08T18:28:03.272448","CLASSIFICATION_TYPE":"U","MEAN_MOTION":13.14502491,"ECCENTRICITY":0.00023991,"INCLINATION":87.8969,"RA_OF_ASC_NODE":285.4011,"ARG_OF_PERICENTER":119.6225,"MEAN_ANOMALY":240.5144,"EPHEMERIS_TYPE":0,"NORAD_CAT_ID":48211,"ELEMENT_SET_NO":999,"REV_AT_EPOCH":25112,"BSTAR":-0.000041661905,"MEAN_MOTION_DOT":-3e-8,"MEAN_MOTION_DDOT":0},{"OBJECT_NAME":"ONEWEB-0179","OBJECT_ID":"2021-031C","EPOCH":"2026-07-08T18:50:43.279296","CLASSIFICATION_TYPE":"U","MEAN_MOTION":14.25565986,"ECCENTRICITY":0.02207776,"INCLINATION":87.8983,"RA_OF_ASC_NODE":281.774,"ARG_OF_PERICENTER":186.4396,"MEAN_ANOMALY":173.3952,"EPHEMERIS_TYPE":0,"NORAD_CAT_ID":48212,"ELEMENT_SET_NO":999,"REV_AT_EPOCH":25212,"BSTAR":0.00092828989,"MEAN_MOTION_DOT":0.00002855,"MEAN_MOTION_DDOT":0},{"OBJECT_NAME":"ONEWEB-0180","OBJECT_ID":"2021-031D","EPOCH":"2026-07-08T18:32:37.833504","CLASSIFICATION_TYPE":"U","MEAN_MOTION":13.14503068,"ECCENTRICITY":0.00028054,"INCLINATION":87.8973,"RA_OF_ASC_NODE":285.3975,"ARG_OF_PERICENTER":107.3828,"MEAN_ANOMALY":252.7609,"EPHEMERIS_TYPE":0,"NORAD_CAT_ID":48213,"ELEMENT_SET_NO":999,"REV_AT_EPOCH":25105,"BSTAR":-0.00022478907,"MEAN_MOTION_DOT":-7.1e-7,"MEAN_MOTION_DDOT":0},{"OBJECT_NAME":"ONEWEB-0218","OBJECT_ID":"2021-031E","EPOCH":"2026-07-08T19:04:35.894496","CLASSIFICATION_TYPE":"U","MEAN_MOTION":13.14503634,"ECCENTRICITY":0.0002708,"INCLINATION":87.8974,"RA_OF_ASC_NODE":285.3927,"ARG_OF_PERICENTER":115.2221,"MEAN_ANOMALY":244.919,"EPHEMERIS_TYPE":0,"NORAD_CAT_ID":48214,"ELEMENT_SET_NO":999,"REV_AT_EPOCH":25121,"BSTAR":0.00053326021,"MEAN_MOTION_DOT":0.00000211,"MEAN_MOTION_DDOT":0},{"OBJECT_NAME":"ONEWEB-0209","OBJECT_ID":"2021-031F","EPOCH":"2026-07-08T18:48:37.398816","CLASSIFICATION_TYPE":"U","MEAN_MOTION":13.14503502,"ECCENTRICITY":0.00022214,"INCLINATION":87.8968,"RA_OF_ASC_NODE":285.409,"ARG_OF_PERICENTER":98.0186,"MEAN_ANOMALY":262.1196,"EPHEMERIS_TYPE":0,"NORAD_CAT_ID":48215,"ELEMENT_SET_NO":999,"REV_AT_EPOCH":25121,"BSTAR":0.00028150632,"MEAN_MOTION_DOT":0.00000117,"MEAN_MOTION_DDOT":0},{"OBJECT_NAME":"ONEWEB-0198","OBJECT_ID":"2021-031G","EPOCH":"2026-07-08T18:25:58.616256","CLASSIFICATION_TYPE":"U","MEAN_MOTION":13.14502765,"ECCENTRICITY":0.00024608,"INCLINATION":87.8958,"RA_OF_ASC_NODE":285.4099,"ARG_OF_PERICENTER":104.2049,"MEAN_ANOMALY":255.9354,"EPHEMERIS_TYPE":0,"NORAD_CAT_ID":48216,"ELEMENT_SET_NO":999,"REV_AT_EPOCH":25132,"BSTAR":-0.00034098215,"MEAN_MOTION_DOT":-0.00000114,"MEAN_MOTION_DDOT":0},{"OBJECT_NAME":"ONEWEB-0189","OBJECT_ID":"2021-031H","EPOCH":"2026-07-08T18:44:02.596704","CLASSIFICATION_TYPE":"U","MEAN_MOTION":13.14502525,"ECCENTRICITY":0.00023355,"INCLINATION":87.8967,"RA_OF_ASC_NODE":285.3965,"ARG_OF_PERICENTER":105.5917,"MEAN_ANOMALY":254.5471,"EPHEMERIS_TYPE":0,"NORAD_CAT_ID":48217,"ELEMENT_SET_NO":999,"REV_AT_EPOCH":25106,"BSTAR":0.00034497847,"MEAN_MOTION_DOT":0.00000141,"MEAN_MOTION_DDOT":0},{"OBJECT_NAME":"ONEWEB-0196","OBJECT_ID":"2021-031J","EPOCH":"2026-07-08T18:12:04.241952","CLASSIFICATION_TYPE":"U","MEAN_MOTION":13.14502275,"ECCENTRICITY":0.00021581,"INCLINATION":87.8966,"RA_OF_ASC_NODE":285.4095,"ARG_OF_PERICENTER":100.1932,"MEAN_ANOMALY":259.9441,"EPHEMERIS_TYPE":0,"NORAD_CAT_ID":48218,"ELEMENT_SET_NO":999,"REV_AT_EPOCH":25106,"BSTAR":-0.00052339693,"MEAN_MOTION_DOT":-0.00000181,"MEAN_MOTION_DDOT":0},{"OBJECT_NAME":"ONEWEB-0183","OBJECT_ID":"2021-031K","EPOCH":"2026-07-08T19:25:08.525280","CLASSIFICATION_TYPE":"U","MEAN_MOTION":13.14501519,"ECCENTRICITY":0.00019854,"INCLINATION":87.8967,"RA_OF_ASC_NODE":285.3971,"ARG_OF_PERICENTER":91.9902,"MEAN_ANOMALY":268.1455,"EPHEMERIS_TYPE":0,"NORAD_CAT_ID":48219,"ELEMENT_SET_NO":999,"REV_AT_EPOCH":25116,"BSTAR":0.00015992348,"MEAN_MOTION_DOT":7.2e-7,"MEAN_MOTION_DDOT":0},{"OBJECT_NAME":"ONEWEB-0185","OBJECT_ID":"2021-031L","EPOCH":"2026-07-08T18:13:11.807616","CLASSIFICATION_TYPE":"U","MEAN_MOTION":13.14503602,"ECCENTRICITY":0.00022804,"INCLINATION":87.8975,"RA_OF_ASC_NODE":285.4018,"ARG_OF_PERICENTER":91.3191,"MEAN_ANOMALY":268.82,"EPHEMERIS_TYPE":0,"NORAD_CAT_ID":48220,"ELEMENT_SET_NO":999,"REV_AT_EPOCH":25108,"BSTAR":-0.00066449794,"MEAN_MOTION_DOT":-0.00000234,"MEAN_MOTION_DDOT":0},{"OBJECT_NAME":"ONEWEB-0187","OBJECT_ID":"2021-031M","EPOCH":"2026-07-08T17:44:27.916800","CLASSIFICATION_TYPE":"U","MEAN_MOTION":13.1450254,"ECCENTRICITY":0.00022046,"INCLINATION":87.8973,"RA_OF_ASC_NODE":285.4194,"ARG_OF_PERICENTER":99.2589,"MEAN_ANOMALY":260.879,"EPHEMERIS_TYPE":0,"NORAD_CAT_ID":48221,"ELEMENT_SET_NO":999,"REV_AT_EPOCH":25109,"BSTAR":-0.00021204403,"MEAN_MOTION_DOT":-6.6e-7,"MEAN_MOTION_DDOT":0},{"OBJECT_NAME":"ONEWEB-0192","OBJECT_ID":"2021-031N","EPOCH":"2026-07-08T18:50:53.949696","CLASSIFICATION_TYPE":"U","MEAN_MOTION":13.14503042,"ECCENTRICITY":0.00020878,"INCLINATION":87.897,"RA_OF_ASC_NODE":285.4006,"ARG_OF_PERICENTER":101.7125,"MEAN_ANOMALY":258.424,"EPHEMERIS_TYPE":0,"NORAD_CAT_ID":48222,"ELEMENT_SET_NO":999,"REV_AT_EPOCH":25101,"BSTAR":0.00045434365,"MEAN_MOTION_DOT":0.00000181,"MEAN_MOTION_DDOT":0},{"OBJECT_NAME":"ONEWEB-0219","OBJECT_ID":"2021-031P","EPOCH":"2026-07-08T18:21:11.506464","CLASSIFICATION_TYPE":"U","MEAN_MOTION":13.14503256,"ECCENTRICITY":0.00022569,"INCLINATION":87.8977,"RA_OF_ASC_NODE":285.3978,"ARG_OF_PERICENTER":97.1883,"MEAN_ANOMALY":262.9503,"EPHEMERIS_TYPE":0,"NORAD_CAT_ID":48223,"ELEMENT_SET_NO":999,"REV_AT_EPOCH":25121,"BSTAR":-0.00047062386,"MEAN_MOTION_DOT":-0.00000162,"MEAN_MOTION_DDOT":0},{"OBJECT_NAME":"ONEWEB-0202","OBJECT_ID":"2021-031Q","EPOCH":"2026-07-08T19:43:25.190112","CLASSIFICATION_TYPE":"U","MEAN_MOTION":13.14502159,"ECCENTRICITY":0.00025771,"INCLINATION":87.8977,"RA_OF_ASC_NODE":285.3984,"ARG_OF_PERICENTER":112.655,"MEAN_ANOMALY":247.4852,"EPHEMERIS_TYPE":0,"NORAD_CAT_ID":48224,"ELEMENT_SET_NO":999,"REV_AT_EPOCH":25120,"BSTAR":-0.00047875585,"MEAN_MOTION_DOT":-0.00000165,"MEAN_MOTION_DDOT":0},{"OBJECT_NAME":"ONEWEB-0204","OBJECT_ID":"2021-031R","EPOCH":"2026-07-08T18:42:52.517664","CLASSIFICATION_TYPE":"U","MEAN_MOTION":13.14499224,"ECCENTRICITY":0.00018663,"INCLINATION":87.8969,"RA_OF_ASC_NODE":285.4021,"ARG_OF_PERICENTER":90.2844,"MEAN_ANOMALY":269.85,"EPHEMERIS_TYPE":0,"NORAD_CAT_ID":48225,"ELEMENT_SET_NO":999,"REV_AT_EPOCH":25109,"BSTAR":0.00026632967,"MEAN_MOTION_DOT":0.00000112,"MEAN_MOTION_DDOT":0}]}
